GLOBALSTAR M035 [-]     
1 25851U 99037A   24060.38711244 -.00000031  00000+0  12307-2 0  9990
2 25851  51.9980  31.5692 0013563 294.4619 236.9646 11.04528595 43906
GLOBALSTAR M032 [-]     
1 25852U 99037B   24060.20100485 -.00000080  00000+0 -43394-3 0  9997
2 25852  51.9919 249.8924 0010674  89.2783 270.9240 11.19049871 81724
GLOBALSTAR M051 [-]     
1 25853U 99037C   24060.43431967 -.00000085  00000+0 -32151-3 0  9999
2 25853  51.9785 103.7508 0001772  97.2282 262.8730 11.42194723 78255
GLOBALSTAR M030 [-]     
1 25854U 99037D   24060.39054109 -.00000117  00000+0 -89176-3 0  9999
2 25854  51.9885 300.0925 0002924 284.8941  75.1552 11.55085944 95296
GLOBALSTAR M048 [-]     
1 25872U 99041A   24060.64823419 -.00000066  00000+0  12348-3 0  9999
2 25872  51.9401  19.9560 0013484  84.4994  86.4945 11.33843395 71266
GLOBALSTAR M026 [-]     
1 25873U 99041B   24060.56817000 -.00000047  00000+0  63008-3 0  9998
2 25873  51.9996 154.1175 0001741 162.9844 298.0413 11.06836792 96046
GLOBALSTAR M043 [-]     
1 25874U 99041C   24060.43191207 -.00000036  00000+0  96165-3 0  9997
2 25874  51.9387 109.2335 0013006 223.4748 149.4762 11.25674368 69522
GLOBALSTAR M028 [-]     
1 25875U 99041D   24060.59659298 -.00000060  00000+0  26236-3 0  9993
2 25875  51.9611 165.1889 0064300 122.9354 237.7713 12.50550962130929
